SKYTERRA 1              
1 37218U 10061A   26060.39773939 -.00000134  00000+0  00000+0 0  9990
2 37218   4.8958  50.9139 0001622 282.3663 227.7600  1.00271277 56119
HYLAS 1                 
1 37237U 10065A   26060.37486590  .00000008  00000+0  00000+0 0  9996
2 37237   5.3698  74.3440 0002813 327.0319 247.9497  1.00649309  5803
INTELSAT 17 (IS-17)     
1 37238U 10065B   26060.38873264 -.00000020  00000+0  00000+0 0  9991
2 37238   0.0140 160.8334 0002434 183.8879  20.3940  1.00271543 52167
EUTELSAT KA-SAT 9A      
1 37258U 10069A   26060.36850338  .00000043  00000+0  00000+0 0  9996
2 37258   0.0566 354.4628 0002663 144.7931 161.5657  1.00271401 42926
HISPASAT 30W-5          
1 37264U 10070A   26060.44116620 -.00000235  00000+0  00000+0 0  9997
2 37264   0.0272 122.3619 0003268 229.8085 295.8658  1.00270367 52109
KOREASAT 6              
1 37265U 10070B   26060.39181451 -.00000130  00000+0  00000+0 0  9990
2 37265   0.0168 123.6768 0002381 204.8334 131.5959  1.00271979 55695
BEIDOU-2 IGSO-3         
1 37384U 11013A   26058.90884667 -.00000154  00000+0  00000+0 0  9999
2 37384  62.2642  41.1818 0035029 190.8154 358.7681  1.00294022 54567
INTELSAT 28 (IS-28)     
1 37392U 11016A   26060.43794685 -.00000243  00000+0  00000+0 0  9991
2 37392   1.5276  84.0238 0004536 252.2076 308.9406  1.00270727 52209
YAHSAT 1A               
1 37393U 11016B   26060.45754628  .00000083  00000+0  00000+0 0  9998
2 37393   0.0035 166.3223 0003355 181.4763  28.6543  1.00270851 41326
SBIRS GEO-1 (USA 230)   
1 37481U 11019A   26060.45745961  .00000084  00000+0  00000+0 0  9990
2 37481   4.2990  53.0912 0002282 288.6976  33.9443  1.00272086 54314
TELSTAR 14R             
1 37602U 11021A   26060.43466618 -.00000298  00000+0  00000+0 0  9993
2 37602   0.0428 274.3169 0002423  72.8960 265.4666  1.00271362 54757
GSAT-8                  
1 37605U 11022A   26060.45780629  .00000067  00000+0  00000+0 0  9993
2 37605   1.8525  83.1958 0007634 213.0759  82.8325  1.00270929 52134
ST-2                    
1 37606U 11022B   26060.50847227 -.00000229  00000+0  00000+0 0  9999
2 37606   0.0109 122.8536 0001837 226.9514  80.5514  1.00270560 54192
ZHONGXING-10            
1 37677U 11026A   26060.39280600 -.00000206  00000+0  00000+0 0  9999
2 37677   0.7674  85.5854 0002664 254.1670  46.3321  1.00269342 53918
SES-3                   
1 37748U 11035A   26060.39827120 -.00000120  00000+0  00000+0 0  9997
2 37748   1.0479  84.3404 0003560 258.5812 216.6284  1.00272073 53515
KAZSAT-2                
1 37749U 11035B   26060.50847256 -.00000216  00000+0  00000+0 0  9999
2 37749   0.0091  96.1782 0000899 316.5155  16.1653  1.00272628 52318
ASTRA 1N                
1 37775U 11041A   26060.30830560  .00000101  00000+0  00000+0 0  9995
2 37775   0.0658  13.2153 0003945   1.7176 274.3343  1.00272229 43444
BSAT-3C (JCSAT-110R)    
1 37776U 11041B   26060.39757267 -.00000369  00000+0  00000+0 0  9994
2 37776   0.0239  61.7054 0000331  21.7360 328.8323  1.00272184 49383
PAKSAT-1R               
1 37779U 11042A   26060.35183495  .00000135  00000+0  00000+0 0  9990
2 37779   0.4092  85.8050 0002335 299.1475 298.8172  1.00276576 53397
SES-2                   
1 37809U 11049A   26060.35857250 -.00000214  00000+0  00000+0 0  9997
2 37809   0.0282  75.5950 0002939 262.5102 223.1028  1.00270288 52882
ARABSAT-5C              
1 37810U 11049B   26060.23933498  .00000105  00000+0  00000+0 0  9993
2 37810   0.0585  26.9582 0002751 316.2063 282.0228  1.00273624 52957
EUTELSAT 7 WEST A       
1 37816U 11051A   26060.37434590 -.00000079  00000+0  00000+0 0  9997
2 37816   0.0672   0.7041 0001604 245.3803  40.5204  1.00271293 52793
QUETZSAT 1              
1 37826U 11054A   26060.43189284 -.00000260  00000+0  00000+0 0  9997
2 37826   0.0592 286.0184 0002690  64.4256 247.2487  1.00271826 48796
INTELSAT 18 (IS-18)     
1 37834U 11056A   26060.37037227  .00000034  00000+0  00000+0 0  9998
2 37834   0.0301 254.5731 0002055  80.4342 137.4684  1.00268473 52732
EUTELSAT 16A            
1 37836U 11057A   26060.30769892  .00000085  00000+0  00000+0 0  9990
2 37836   0.0590 342.8532 0005452 358.7406 304.2688  1.00270370  6253
VIASAT-1                
1 37843U 11059A   26060.48036487  .00000000  00000+0  00000+0 0  9993
2 37843   0.0222 154.9526 0002021 214.8217 207.3254  1.00277024 46247
ASIASAT 7               
1 37933U 11069A   26060.39670601 -.00000352  00000+0  00000+0 0  9997
2 37933   0.0129 198.1880 0001104 121.7574  87.5373  1.00269824 43773
LUCH-5A                 
1 37951U 11074B   26060.37539352 -.00000063  00000+0  00000+0 0  9997
2 37951   8.4794  75.3923 0004129 240.3052 145.6667  1.00274828 51979
